INMARSAT GX5            
1 44801U 19080B   26166.03030796  .00000079  00000+0  00000+0 0  9998
2 44801   0.0337 358.1200 0002050  95.5433 191.5978  1.00266238  6764
JCSAT-18 (KACIFIC 1)    
1 44868U 19091A   26165.98725531 -.00000196  00000+0  00000+0 0  9995
2 44868   0.0161 254.2439 0000479  28.4598 125.9776  1.00267788 23983
ELEKTRO-L 3             
1 44903U 19095A   26165.98893676 -.00000091  00000+0  00000+0 0  9999
2 44903   0.2504  81.5404 0000944 353.1367 260.5757  1.00271475 23688
SHIJIAN-20 (SJ-20)      
1 44910U 19097A   26166.02475332  .00000136  00000+0  00000+0 0  9999
2 44910   4.9134  75.0883 0013885  55.0590 186.9701  1.00277455 23672
TJS-5                   
1 44978U 20002A   26166.03655818 -.00000337  00000+0  00000+0 0  9995
2 44978   0.0173 300.8197 0007332 105.7089 337.4655  1.00269708 23683
GSAT-30                 
1 45026U 20005A   26165.99032344 -.00000160  00000+0  00000+0 0  9994
2 45026   0.0682  97.8238 0003332 346.5799 258.3819  1.00271260 23488
EUTELSAT KONNECT        
1 45027U 20005B   26166.03030796  .00000055  00000+0  00000+0 0  9992
2 45027   0.0725  97.8075 0001525 122.8326  60.8276  1.00271655 24313
JCSAT-17                
1 45245U 20013A   26165.97768104 -.00000312  00000+0  00000+0 0  9993
2 45245   5.3923 356.8513 0002325  84.6995 309.7048  1.00270841 23210
GEO-KOMPSAT-2B          
1 45246U 20013B   26166.00392058  .00000000  00000+0  00000+0 0  9993
2 45246   0.0104 355.1253 0000780 275.1313 122.7195  1.00269915 23251
BEIDOU-3 G2             
1 45344U 20017A   26165.98971677 -.00000138  00000+0  00000+0 0  9995
2 45344   2.8588  47.3035 0002046  32.2453 260.1067  1.00272224 23238
AEHF-6 (USA 298)        
1 45465U 20022B   26166.00124347 -.00000291  00000+0  00000+0 0  9993
2 45465   2.5530 301.1243 0043203  17.0030  83.3882  1.00272065 22995
BEIDOU-3 G3             
1 45807U 20040A   26166.00947532 -.00000350  00000+0  00000+0 0  9998
2 45807   2.4408  67.4385 0002416 335.3736 334.4335  1.00267636 22044
APSTAR-6D               
1 45863U 20045A   26165.71525685 -.00000311  00000+0  00000+0 0  9990
2 45863   0.0526 103.4417 0002099 344.7575 206.3375  1.00270603 21835
KOREASAT 116            
1 45920U 20048A   26166.10183568 -.00000357  00000+0  00000+0 0  9991
2 45920   0.0114  19.3071 0000687  69.0274 327.9251  1.00268900 21613
EXPRESS 103             
1 45985U 20053A   26166.05322593 -.00000275  00000+0  00000+0 0  9994
2 45985   0.0125 285.7342 0000316  60.3237  32.9435  1.00269414 21627
EXPRESS 80              
1 45986U 20053B   26165.04905667 -.00000127  00000+0  00000+0 0  9998
2 45986   0.0221 298.2331 0001483 231.0181 190.7564  1.00274018 21603
BSAT-4B                 
1 46112U 20056A   26164.49851758  .00000000  00000+0  00000+0 0  9991
2 46112   0.0192  98.5475 0003746  17.2668  75.2961  1.00268721 21354
MEV-2                   
1 46113U 20056B   26166.04498883 -.00000007  00000+0  00000+0 0  9999
2 46113   0.0110 323.4081 0000383 227.1731  87.9371  1.00269697 80538
GALAXY 30 (G-30)        
1 46114U 20056C   26166.01642035  .00000042  00000+0  00000+0 0  9995
2 46114   0.0174   6.0126 0002060  78.6755  59.5270  1.00270627 21276
GAOFEN-13 01            
1 46610U 20071A   26166.00947532 -.00000358  00000+0  00000+0 0  9993
2 46610   0.5159  84.8700 0041397 123.7152 176.3453  1.00271597 20891
TIANTONG-1 2            
1 46916U 20082A   26166.21252836 -.00000351  00000+0  00000+0 0  9996
2 46916   0.7930 327.2227 0000931 100.1642  37.5646  1.00270238 20634
LUCAS (JDRS-1)          
1 47202U 20089A   26166.02243168 -.00000231  00000+0  00000+0 0  9996
2 47202   0.0176 328.9716 0002036 103.8765 289.3450  1.00270815 20397
SXM-7                   
1 47240U 20096A   26165.95705219 -.00000200  00000+0  00000+0 0  9993
2 47240   0.0312  98.3690 0003651  27.4675  36.8000  1.00271395  7424
CMS-01                  
1 47256U 20099A   26165.99032344 -.00000160  00000+0  00000+0 0  9994
2 47256   0.0930  95.5624 0003791 180.6594  66.5692  1.00270889 20171
TURKSAT 5A              
1 47306U 21001A   26165.98001006  .00000159  00000+0  00000+0 0  9991
2 47306   0.0137  46.1455 0000186 256.3671 344.4991  1.00270782 19947
TIANTONG-1 3            
1 47321U 21003A   26165.98997677 -.00000149  00000+0  00000+0 0  9998
2 47321   1.7586 339.1468 0003044 111.0045 251.0662  1.00270796 19939
TJS-6                   
1 47613U 21010A   26166.15181250  .00000047  00000+0  00000+0 0  9998
2 47613   0.2569 264.3506 0002948 224.5947   7.6500  1.00268815 19781
SBIRS GEO-5 (USA 315)   
1 48618U 21042A   26166.12108316 -.00000263  00000+0  00000+0 0  9999
2 48618   5.1062 329.1133 0001238 122.1923 309.5066  1.00270886 18751
FENGYUN 4B              
1 48808U 21047A   26166.04211558 -.00000326  00000+0  00000+0 0  9999
2 48808   0.1479  77.2509 0005912 275.1436  30.6819  1.00277553 18541
SXM-8                   
1 48838U 21049A   26165.95705219 -.00000200  00000+0  00000+0 0  9996
2 48838   0.0188  13.9482 0004921  16.2262 132.4666  1.00271435 18563
TIANLIAN 1-05           
1 49011U 21063A   26166.19103493  .00000111  00000+0  00000+0 0  9999
2 49011   1.5888  80.7208 0000508 319.7587 308.5764  1.00271261 18052
STAR ONE D2             
1 49055U 21069A   26166.17384541  .00000000  00000+0  00000+0 0  9993
2 49055   0.0162 337.8384 0002058 134.2817 143.8251  1.00270847 17923
