OBJECT_NAME,OBJECT_ID,EPOCH,MEAN_MOTION,ECCENTRICITY,INCLINATION,RA_OF_ASC_NODE,ARG_OF_PERICENTER,MEAN_ANOMALY,EPHEMERIS_TYPE,CLASSIFICATION_TYPE,NORAD_CAT_ID,ELEMENT_SET_NO,REV_AT_EPOCH,BSTAR,MEAN_MOTION_DOT,MEAN_MOTION_DDOT
INMARSAT GX5,2019-080B,2026-06-15T00:43:38.607744,1.00266238,.000205,0.0337,358.1200,95.5433,191.5978,0,U,44801,999,676,0,.79E-6,0
JCSAT-18 (KACIFIC 1),2019-091A,2026-06-14T23:41:38.858784,1.00267788,.0000479,0.0161,254.2439,28.4598,125.9776,0,U,44868,999,2398,0,-.196E-5,0
ELEKTRO-L 3,2019-095A,2026-06-14T23:44:04.136064,1.00271475,.0000944,0.2504,81.5404,353.1367,260.5757,0,U,44903,999,2368,0,-.91E-6,0
SHIJIAN-20 (SJ-20),2019-097A,2026-06-15T00:35:38.686848,1.00277455,.0013885,4.9134,75.0883,55.0590,186.9701,0,U,44910,999,2367,0,.136E-5,0
TJS-5,2020-002A,2026-06-15T00:52:38.626752,1.00269708,.0007332,0.0173,300.8197,105.7089,337.4655,0,U,44978,999,2368,0,-.337E-5,0
GSAT-30,2020-005A,2026-06-14T23:46:03.945216,1.00271260,.0003332,0.0682,97.8238,346.5799,258.3819,0,U,45026,999,2348,0,-.16E-5,0
EUTELSAT KONNECT,2020-005B,2026-06-15T00:43:38.607744,1.00271655,.0001525,0.0725,97.8075,122.8326,60.8276,0,U,45027,999,2431,0,.55E-6,0
JCSAT-17,2020-013A,2026-06-14T23:27:51.641856,1.00270841,.0002325,5.3923,356.8513,84.6995,309.7048,0,U,45245,999,2321,0,-.312E-5,0
GEO-KOMPSAT-2B,2020-013B,2026-06-15T00:05:38.738112,1.00269915,.000078,0.0104,355.1253,275.1313,122.7195,0,U,45246,999,2325,0,0,0
BEIDOU-3 G2,2020-017A,2026-06-14T23:45:11.528928,1.00272224,.0002046,2.8588,47.3035,32.2453,260.1067,0,U,45344,999,2323,0,-.138E-5,0
AEHF-6 (USA 298),2020-022B,2026-06-15T00:01:47.435808,1.00272065,.0043203,2.5530,301.1243,17.0030,83.3882,0,U,45465,999,2299,0,-.291E-5,0
BEIDOU-3 G3,2020-040A,2026-06-15T00:13:38.667648,1.00267636,.0002416,2.4408,67.4385,335.3736,334.4335,0,U,45807,999,2204,0,-.35E-5,0
APSTAR-6D,2020-045A,2026-06-14T17:09:58.191840,1.00270603,.00020997,0.0526,103.4417,344.7575,206.3375,0,U,45863,999,2183,0,-.311E-5,0
KOREASAT 116,2020-048A,2026-06-15T02:26:38.602752,1.00268900,.0000687,0.0114,19.3071,69.0274,327.9251,0,U,45920,999,2161,0,-.357E-5,0
EXPRESS 103,2020-053A,2026-06-15T01:16:38.720352,1.00269414,.0000316,0.0125,285.7342,60.3237,32.9435,0,U,45985,999,2162,0,-.275E-5,0
EXPRESS 80,2020-053B,2026-06-14T01:10:38.496288,1.00274018,.00014838,0.0221,298.2331,231.0181,190.7564,0,U,45986,999,2160,0,-.127E-5,0
BSAT-4B,2020-056A,2026-06-13T11:57:51.918912,1.00268721,.00037461,0.0192,98.5475,17.2668,75.2961,0,U,46112,999,2135,0,0,0
MEV-2,2020-056B,2026-06-15T01:04:47.034912,1.00269697,.0000383,0.0110,323.4081,227.1731,87.9371,0,U,46113,999,8053,0,-.7E-7,0
GALAXY 30 (G-30),2020-056C,2026-06-15T00:23:38.718240,1.00270627,.000206,0.0174,6.0126,78.6755,59.5270,0,U,46114,999,2127,0,.42E-6,0
GAOFEN-13 01,2020-071A,2026-06-15T00:13:38.667648,1.00271597,.0041397,0.5159,84.8700,123.7152,176.3453,0,U,46610,999,2089,0,-.358E-5,0
TIANTONG-1 2,2020-082A,2026-06-15T05:06:02.450304,1.00270238,.0000931,0.7930,327.2227,100.1642,37.5646,0,U,46916,999,2063,0,-.351E-5,0
LUCAS (JDRS-1),2020-089A,2026-06-15T00:32:18.097152,1.00270815,.0002036,0.0176,328.9716,103.8765,289.3450,0,U,47202,999,2039,0,-.231E-5,0
SXM-7,2020-096A,2026-06-14T22:58:09.309216,1.00271395,.0003651,0.0312,98.3690,27.4675,36.8000,0,U,47240,999,742,0,-.2E-5,0
CMS-01,2020-099A,2026-06-14T23:46:03.945216,1.00270889,.0003791,0.0930,95.5624,180.6594,66.5692,0,U,47256,999,2017,0,-.16E-5,0
TURKSAT 5A,2021-001A,2026-06-14T23:31:12.869184,1.00270782,.0000186,0.0137,46.1455,256.3671,344.4991,0,U,47306,999,1994,0,.159E-5,0
TIANTONG-1 3,2021-003A,2026-06-14T23:45:33.992928,1.00270796,.0003044,1.7586,339.1468,111.0045,251.0662,0,U,47321,999,1993,0,-.149E-5,0
TJS-6,2021-010A,2026-06-15T03:38:36.600000,1.00268815,.0002948,0.2569,264.3506,224.5947,7.6500,0,U,47613,999,1978,0,.47E-6,0
SBIRS GEO-5 (USA 315),2021-042A,2026-06-15T02:54:21.585024,1.00270886,.0001238,5.1062,329.1133,122.1923,309.5066,0,U,48618,999,1875,0,-.263E-5,0
FENGYUN 4B,2021-047A,2026-06-15T01:00:38.786112,1.00277553,.0005912,0.1479,77.2509,275.1436,30.6819,0,U,48808,999,1854,0,-.326E-5,0
SXM-8,2021-049A,2026-06-14T22:58:09.309216,1.00271435,.0004921,0.0188,13.9482,16.2262,132.4666,0,U,48838,999,1856,0,-.2E-5,0
TIANLIAN 1-05,2021-063A,2026-06-15T04:35:05.417952,1.00271261,.0000508,1.5888,80.7208,319.7587,308.5764,0,U,49011,999,1805,0,.111E-5,0
STAR ONE D2,2021-069A,2026-06-15T04:10:20.243424,1.00270847,.0002058,0.0162,337.8384,134.2817,143.8251,0,U,49055,999,1792,0,0,0
